ORBCOMM FM115           
1 41186U 15081H   25128.56247963  .00000939  00000+0  21799-3 0  9996
2 41186  46.9982 228.0032 0001655 247.7604 112.3108 14.62437816501974
ORBCOMM FM108           
1 41187U 15081J   25128.77066181  .00001104  00000+0  27418-3 0  9990
2 41187  47.0053 293.1099 0002441 147.5199 212.5837 14.58089099501043
ORBCOMM FM117           
1 41188U 15081K   25128.73688480  .00001073  00000+0  26733-3 0  9993
2 41188  47.0016 292.0444 0002949 153.1411 206.9628 14.58091178501088
ORBCOMM FM116           
1 41189U 15081L   25128.93150195  .00001215  00000+0  29788-3 0  9994
2 41189  47.0037  20.9719 0002675 326.7454  33.3263 14.58103091499920
